{
    "links": {
        "self": "http://www.neowsapp.com/rest/v1/neo/3179360?api_key=iIulBulltgU6a56xZRHN4H3l9WmuAYTsLGpBGhQ2"
    },
    "id": "3179360",
    "neo_reference_id": "3179360",
    "name": "(2004 GC19)",
    "designation": "2004 GC19",
    "nasa_jpl_url": "http://ssd.jpl.nasa.gov/sbdb.cgi?sstr=3179360",
    "absolute_magnitude_h": 24.1,
    "estimated_diameter": {
        "kilometers": {
            "estimated_diameter_min": 0.040230458,
            "estimated_diameter_max": 0.0899580388
        },
        "meters": {
            "estimated_diameter_min": 40.2304579834,
            "estimated_diameter_max": 89.9580388169
        },
        "miles": {
            "estimated_diameter_min": 0.0249980399,
            "estimated_diameter_max": 0.0558973165
        },
        "feet": {
            "estimated_diameter_min": 131.9896957704,
            "estimated_diameter_max": 295.1379320721
        }
    },
    "is_potentially_hazardous_asteroid": false,
    "close_approach_data": [
        {
            "close_approach_date": "2004-04-21",
            "close_approach_date_full": "2004-Apr-21 18:38",
            "epoch_date_close_approach": 1082572680000,
            "relative_velocity": {
                "kilometers_per_second": "11.3759678836",
                "kilometers_per_hour": "40953.484380847",
                "miles_per_hour": "25446.9025587546"
            },
            "miss_distance": {
                "astronomical": "0.0354497275",
                "lunar": "13.7899439975",
                "kilometers": "5303203.726080425",
                "miles": "3295257.992242865"
            },
            "orbiting_body": "Earth"
        },
        {
            "close_approach_date": "2054-04-03",
            "close_approach_date_full": "2054-Apr-03 05:09",
            "epoch_date_close_approach": 2658805740000,
            "relative_velocity": {
                "kilometers_per_second": "18.1152966861",
                "kilometers_per_hour": "65215.0680698639",
                "miles_per_hour": "40522.1071570774"
            },
            "miss_distance": {
                "astronomical": "0.2398614653",
                "lunar": "93.3061100017",
                "kilometers": "35882764.303958911",
                "miles": "22296515.8353025318"
            },
            "orbiting_body": "Earth"
        },
        {
            "close_approach_date": "2160-08-13",
            "close_approach_date_full": "2160-Aug-13 09:08",
            "epoch_date_close_approach": 6015287280000,
            "relative_velocity": {
                "kilometers_per_second": "22.1293939192",
                "kilometers_per_hour": "79665.8181092244",
                "miles_per_hour": "49501.2412579234"
            },
            "miss_distance": {
                "astronomical": "0.4148822717",
                "lunar": "161.3892036913",
                "kilometers": "62065504.147081279",
                "miles": "38565715.9609844902"
            },
            "orbiting_body": "Earth"
        }
    ],
    "orbital_data": {
        "orbit_id": "14",
        "orbit_determination_date": "2017-04-06 09:12:55",
        "first_observation_date": "2004-04-15",
        "last_observation_date": "2004-04-25",
        "data_arc_in_days": 10,
        "observations_used": 49,
        "orbit_uncertainty": "8",
        "minimum_orbit_intersection": ".0352258",
        "jupiter_tisserand_invariant": "3.485",
        "epoch_osculation": "2453114.5",
        "eccentricity": ".5566022623440952",
        "semi_major_axis": "2.139494041656761",
        "inclination": "8.668773370179007",
        "ascending_node_longitude": "200.0142454453477",
        "orbital_period": "1143.049528597241",
        "perihelion_distance": ".9486468177988961",
        "perihelion_argument": "48.62326245380101",
        "aphelion_distance": "3.330341265514626",
        "perihelion_time": "2453146.343981570384",
        "mean_anomaly": "349.9708340902719",
        "mean_motion": ".3149469826052023",
        "equinox": "J2000",
        "orbit_class": {
            "orbit_class_type": "APO",
            "orbit_class_description": "Near-Earth asteroid orbits which cross the Earth’s orbit similar to that of 1862 Apollo",
            "orbit_class_range": "a (semi-major axis) > 1.0 AU; q (perihelion) < 1.017 AU"
        }
    },
    "is_sentry_object": false
}